NORAD_CAT_ID,OBJECT_NAME,OBJECT_TYPE,EPOCH,MEAN_MOTION,ECCENTRICITY,INCLINATION,RA_OF_ASC_NODE,ARG_OF_PERICENTER,MEAN_ANOMALY,BSTAR,MEAN_MOTION_DOT,MEAN_MOTION_DDOT,TLE_LINE0,TLE_LINE1,TLE_LINE2,SEMIMAJOR_AXIS,PERIOD,APOGEE,PERIGEE,DECAYED
52267.0,STARLINK-3748,PAYLOAD,2022-05-26 22:00:00,15.49879903,0.000168,53.2133,201.8982,36.1655,86.5425,0.00035446,0.00019713,0.0,0 STARLINK-3748,1 52267U 22041G   22146.91667824  .00019713  00000-0  35446-3 0  9995,2 52267  53.2133 201.8982 0001680  36.1655  86.5425 15.49879903  1301,6795.214,92.91,418.221,415.937,0.0
52267.0,STARLINK-3748,PAYLOAD,2022-05-27 02:00:01,15.49871955,0.000169,53.2132,201.101,39.4186,293.7493,0.0010382999999999,0.00058896,0.0,0 STARLINK-3748,1 52267U 22041G   22147.08334491  .00058896  00000-0  10383-2 0  9992,2 52267  53.2132 201.1010 0001690  39.4186 293.7493 15.49871955  6784,6795.236999999999,92.911,418.251,415.954,0.0
52267.0,STARLINK-3748,PAYLOAD,2022-05-27 14:00:01,15.49876388,0.0001986,53.2134,198.7137,33.9622,210.5878,0.0010272,0.00058266,0.0,0 STARLINK-3748,1 52267U 22041G   22147.58334491  .00058266  00000-0  10272-2 0  9995,2 52267  53.2134 198.7137 0001986  33.9622 210.5878 15.49876388  6867,6795.224,92.911,418.439,415.74,0.0
52267.0,STARLINK-3748,PAYLOAD,2022-05-27 22:00:01,15.49900921,0.00018,53.2148,197.1162,37.6985,267.8544,0.00047189,0.00026436,0.0,0 STARLINK-3748,1 52267U 22041G   22147.91668981  .00026436  00000-0  47189-3 0  9998,2 52267  53.2148 197.1162 0001800  37.6985 267.8544 15.49900921  1301,6795.153,92.909,418.241,415.795,0.0
52267.0,STARLINK-3748,PAYLOAD,2022-05-28 02:52:37,15.49980582,0.0002551,53.2142,196.1461,43.0271,317.0939,-0.00029512,-0.00017224,0.0,0 STARLINK-3748,1 52267U 22041G   22148.11987693 -.00017224  00000-0 -29512-3 0  9992,2 52267  53.2142 196.1461 0002551  43.0271 317.0939 15.49980582  6941,6794.92,92.904,418.518,415.051,0.0
52267.0,STARLINK-3748,PAYLOAD,2022-05-28 14:00:01,15.49911316,0.0002085,53.2124,193.9342,35.0072,32.4021,0.0010015,0.00056858,0.0,0 STARLINK-3748,1 52267U 22041G   22148.58334491  .00056858  00000-0  10015-2 0  9996,2 52267  53.2124 193.9342 0002085  35.0072  32.4021 15.49911316  7014,6795.121999999999,92.909,418.404,415.57,0.0
52267.0,STARLINK-3748,PAYLOAD,2022-05-28 19:54:04,15.49936513,0.000195,53.2127,192.7569,40.4449,319.6706,0.00021495,0.00011788,0.0,0 STARLINK-3748,1 52267U 22041G   22148.82922062  .00011788  00000-0  21495-3 0  9998,2 52267  53.2127 192.7569 0001950  40.4449 319.6706 15.49936513  5837,6795.049,92.907,418.239,415.589,0.0
52267.0,STARLINK-3748,PAYLOAD,2022-05-29 04:00:00,15.49933592,0.0001754999999999,53.2123,191.1441,38.1006,46.0352,-0.00062353,-0.00035741,0.0,0 STARLINK-3748,1 52267U 22041G   22149.16667824 -.00035741  00000-0 -62353-3 0  9993,2 52267  53.2123 191.1441 0001755  38.1006  46.0352 15.49933592  7105,6795.057,92.907,418.115,415.73,0.0
52267.0,STARLINK-3748,PAYLOAD,2022-05-29 14:00:01,15.49878732,0.0002044,53.2117,189.1545,33.5187,216.8045,-0.00052796,-0.00030296,0.0,0 STARLINK-3748,1 52267U 22041G   22149.58334491 -.00030296  00000-0 -52796-3 0  9990,2 52267  53.2117 189.1545 0002044  33.5187 216.8045 15.49878732  1307,6795.218000000003,92.91,418.471,415.694,0.0
52267.0,STARLINK-3748,PAYLOAD,2022-05-29 22:00:00,15.49839942,0.0001894,53.2119,187.5593,40.5533,270.6829,0.00076801,0.0004331,0.0,0 STARLINK-3748,1 52267U 22041G   22149.91667824  .00043310  00000-0  76801-3 0  9998,2 52267  53.2119 187.5593 0001894  40.5533 270.6829 15.49839942  1307,6795.331,92.913,418.483,415.909,0.0
52267.0,STARLINK-3748,PAYLOAD,2022-05-30 06:00:00,15.49887429,0.0001982,53.212,185.9669,40.9402,331.1666,-0.00041527,-0.00023952,0.0,0 STARLINK-3748,1 52267U 22041G   22150.25001157 -.00023952  00000-0 -41527-3 0  9997,2 52267  53.2120 185.9669 0001982  40.9402 331.1666 15.49887429  7279,6795.191999999999,92.91,418.404,415.71,0.0
52267.0,STARLINK-3748,PAYLOAD,2022-05-30 14:00:01,15.49858246,0.0002163,53.2118,184.375,36.5259,36.4838,0.00081762,0.00046185,0.0,0 STARLINK-3748,1 52267U 22041G   22150.58334491  .00046185  00000-0  81762-3 0  9999,2 52267  53.2118 184.3750 0002163  36.5259  36.4838 15.49858246  1302,6795.276999999999,92.912,418.612,415.673,0.0
52267.0,STARLINK-3748,PAYLOAD,2022-05-30 22:00:00,15.49829047,0.0002129,53.214,182.7771,39.6956,94.1579,0.00037183,0.00020666,0.0,0 STARLINK-3748,1 52267U 22041G   22150.91667824  .00020666  00000-0  37183-3 0  9999,2 52267  53.2140 182.7771 0002129  39.6956  94.1579 15.49829047  7375,6795.363,92.913,418.674,415.781,0.0
52267.0,STARLINK-3748,PAYLOAD,2022-05-31 04:00:00,15.49915873,0.0002075,53.2154,181.5799,38.9207,50.5618,-0.005631,-0.00308167,0.0,0 STARLINK-3748,1 52267U 22041G   22151.16667824 -.00308167  00000-0 -56310-2 0  9996,2 52267  53.2154 181.5799 0002075  38.9207  50.5618 15.49915873  7416,6795.109,92.908,418.384,415.564,0.0
52267.0,STARLINK-3748,PAYLOAD,2022-05-31 06:00:02,15.49885998,0.0002058,53.2159,181.1815,39.0719,155.7005,-0.0067533,-0.00366413,0.0,0 STARLINK-3748,1 52267U 22041G   22151.25002315 -.00366413  00000-0 -67533-2 0  9991,2 52267  53.2159 181.1815 0002058  39.0719 155.7005 15.49885998  1301,6795.196,92.91,418.46,415.663,0.0
52267.0,STARLINK-3748,PAYLOAD,2022-05-31 14:00:01,15.4966559,0.0001716,53.2172,179.5869,39.6145,215.8608,-0.013789,-0.00719307,0.0,0 STARLINK-3748,1 52267U 22041G   22151.58334491 -.00719307  00000-0 -13789-1 0  9997,2 52267  53.2172 179.5869 0001716  39.6145 215.8608 15.49665590  7481,6795.840999999999,92.923,418.872,416.539,0.0
52267.0,STARLINK-3748,PAYLOAD,2022-05-31 22:00:00,15.49154383,0.0001881,53.2174,177.99200000000005,28.0421,287.7752,-0.014013,-0.00717996,0.0,0 STARLINK-3748,1 52267U 22041G   22151.91667824 -.00717996  00000-0 -14013-1 0  9996,2 52267  53.2174 177.9920 0001881  28.0421 287.7752 15.49154383  1301,6797.3359999999975,92.954,420.479,417.922,0.0
52267.0,STARLINK-3748,PAYLOAD,2022-06-01 10:34:51,15.49002509,0.0002203,53.2124,175.5008,324.8377,35.2487,-0.0037548,-0.00201808,0.0,0 STARLINK-3748,1 52267U 22041G   22152.44087810 -.00201808  00000-0 -37548-2 0  9995,2 52267  53.2124 175.5008 0002203 324.8377  35.2487 15.49002509  7616,6797.78,92.963,421.142,418.147,0.0
52267.0,STARLINK-3748,PAYLOAD,2022-06-01 20:00:01,15.47753244,0.0001575999999999,53.2175,173.6177,34.9002,353.6918,-0.014771,-0.00720182,0.0,0 STARLINK-3748,1 52267U 22041G   22152.83334491 -.00720182  00000-0 -14771-1 0  9991,2 52267  53.2175 173.6177 0001576  34.9002 353.6918 15.47753244  7673,6801.437,93.038,424.374,422.23,0.0
52267.0,STARLINK-3748,PAYLOAD,2022-06-02 16:01:57,15.473054199999998,0.0002282,53.2125,169.655,34.9609,325.1549,-0.0070878999999999,-0.00351887,0.0,0 STARLINK-3748,1 52267U 22041G   22153.66802744 -.00351887  00000-0 -70879-2 0  9998,2 52267  53.2125 169.6550 0002282  34.9609 325.1549 15.47305420  7804,6802.749,93.065,426.167,423.062,0.0
52267.0,STARLINK-3748,PAYLOAD,2022-06-03 04:26:36,15.46577913,0.0002583999999999,53.2129,167.1959,345.0127,15.0805,-0.0068762,-0.00333669,0.0,0 STARLINK-3748,1 52267U 22041G   22154.18514369 -.00333669  00000-0 -68762-2 0  9995,2 52267  53.2129 167.1959 0002584 345.0127  15.0805 15.46577913  7885,6804.8830000000025,93.109,428.506,424.989,0.0
52267.0,STARLINK-3748,PAYLOAD,2022-06-03 12:12:16,15.46014656,9.41e-05,53.2124,165.6598,25.8012,334.3043,-0.0075718999999999,-0.00359048,0.0,0 STARLINK-3748,1 52267U 22041G   22154.50852262 -.00359048  00000-0 -75719-2 0  9997,2 52267  53.2124 165.6598 0000941  25.8012 334.3043 15.46014656  7930,6806.535,93.143,429.041,427.76,0.0
52267.0,STARLINK-3748,PAYLOAD,2022-06-03 15:18:35,15.45805935,0.0001668,53.2128,165.0456,34.7655,325.3462,-0.0073861,-0.00348255,0.0,0 STARLINK-3748,1 52267U 22041G   22154.63790511 -.00348255  00000-0 -73861-2 0  9993,2 52267  53.2128 165.0456 0001668  34.7655 325.3462 15.45805935  7954,6807.148,93.155,430.148,427.878,0.0
52267.0,STARLINK-3748,PAYLOAD,2022-06-04 11:29:16,15.45023911,0.0001266,53.2141,161.058,17.4022,342.7029,-0.0068121,-0.00314065,0.0,0 STARLINK-3748,1 52267U 22041G   22155.47866390 -.00314065  00000-0 -68121-2 0  9990,2 52267  53.2141 161.0580 0001266  17.4022 342.7029 15.45023911  8086,6809.445,93.202,432.172,430.448,0.0
52267.0,STARLINK-3748,PAYLOAD,2022-06-05 22:00:00,15.41505215,0.0001584,53.2174,154.2425,38.2812,29.1015,-0.018246,-0.00718319,0.0,0 STARLINK-3748,1 52267U 22041G   22156.91667824 -.00718319  00000-0 -18246-1 0  9993,2 52267  53.2174 154.2425 0001584  38.2812  29.1015 15.41505215  8309,6819.803000000001,93.415,442.74800000000016,440.588,0.0
52267.0,STARLINK-3748,PAYLOAD,2022-06-06 14:00:01,15.40486407,0.0001673,53.2171,151.0981,43.7764,124.0629,-0.018909,-0.00719434,0.0,0 STARLINK-3748,1 52267U 22041G   22157.58334491 -.00719434  00000-0 -18909-1 0  9993,2 52267  53.2171 151.0981 0001673  43.7764 124.0629 15.40486407  1303,6822.81,93.477,445.816,443.533,0.0
52267.0,STARLINK-3748,PAYLOAD,2022-06-06 22:00:00,15.39976728,0.0001734,53.2173,149.5255,43.3652,173.7846,-0.019252,-0.00720134,0.0,0 STARLINK-3748,1 52267U 22041G   22157.91667824 -.00720134  00000-0 -19252-1 0  9990,2 52267  53.2173 149.5255 0001734  43.3652 173.7846 15.39976728  8465,6824.315,93.508,447.36300000000006,444.997,0.0
52267.0,STARLINK-3748,PAYLOAD,2022-06-07 14:00:01,15.38957688,0.0001406999999999,53.2173,146.3883,52.0442,261.8858,-0.019959,-0.00721667,0.0,0 STARLINK-3748,1 52267U 22041G   22158.58334491 -.00721667  00000-0 -19959-1 0  9991,2 52267  53.2173 146.3883 0001407  52.0442 261.8858 15.38957688  1309,6827.3269999999975,93.57,450.153,448.232,0.0
52267.0,STARLINK-3748,PAYLOAD,2022-06-07 22:00:00,15.38444609,0.0001493,53.2173,144.8196,43.4395,317.9637,-0.020132,-0.00716192,0.0,0 STARLINK-3748,1 52267U 22041G   22158.91667824 -.00716192  00000-0 -20132-1 0  9999,2 52267  53.2173 144.8196 0001493  43.4395 317.9637 15.38444609  1307,6828.845,93.601,451.73,449.691,0.0
